{
"type": "FeatureCollection",
"name": "Stands",
"crs": { "type": "name", "properties": { "name": "urn:ogc:def:crs:OGC:1.3:CRS84" } },
"features": [
{"type":"Feature","properties":{"id":null,"Name":"House","description":null,"timestamp":null,"begin":null,"end":null,"altitudeMode":null,"tessellate":-1,"extrude":0,"visibility":-1,"drawOrder":null,"icon":null},"geometry":{"type":"Point","coordinates":[-89.482873467311393,44.184202211123079,0.0]}},
{"type":"Feature","properties":{"id":null,"Name":"Chris","description":null,"timestamp":null,"begin":null,"end":null,"altitudeMode":null,"tessellate":-1,"extrude":0,"visibility":-1,"drawOrder":null,"icon":null},"geometry":{"type":"Point","coordinates":[-89.49013754969782,44.180390042004987,0.0]}},
{"type":"Feature","properties":{"id":null,"Name":"JIM","description":"Jims Stand - Truck Cap","timestamp":null,"begin":null,"end":null,"altitudeMode":null,"tessellate":-1,"extrude":0,"visibility":-1,"drawOrder":null,"icon":null},"geometry":{"type":"Point","coordinates":[-89.490561230631343,44.18199394720483,0.0]}},
{"type":"Feature","properties":{"id":null,"Name":"HiChair","description":"High Chari stand on round top","timestamp":null,"begin":null,"end":null,"altitudeMode":null,"tessellate":-1,"extrude":0,"visibility":-1,"drawOrder":null,"icon":null},"geometry":{"type":"Point","coordinates":[-89.486000557288875,44.180659494290843,0.0]}},
{"type":"Feature","properties":{"id":null,"Name":"Becky","description":null,"timestamp":null,"begin":null,"end":null,"altitudeMode":null,"tessellate":-1,"extrude":0,"visibility":-1,"drawOrder":null,"icon":null},"geometry":{"type":"Point","coordinates":[-89.480203764587699,44.183771710820537,0.0]}},
{"type":"Feature","properties":{"id":null,"Name":"Stan Box","description":null,"timestamp":null,"begin":null,"end":null,"altitudeMode":null,"tessellate":-1,"extrude":0,"visibility":-1,"drawOrder":null,"icon":null},"geometry":{"type":"Point","coordinates":[-89.484933059727553,44.183440746016267,0.0]}},
{"type":"Feature","properties":{"id":null,"Name":"Doc","description":"Ladder stand","timestamp":null,"begin":null,"end":null,"altitudeMode":null,"tessellate":-1,"extrude":0,"visibility":-1,"drawOrder":null,"icon":null},"geometry":{"type":"Point","coordinates":[-89.486475691751181,44.18373670275129,0.0]}},
{"type":"Feature","properties":{"id":null,"Name":"Bonnie","description":"Bonnie's Stand = Pickup Bed","timestamp":null,"begin":null,"end":null,"altitudeMode":null,"tessellate":-1,"extrude":0,"visibility":-1,"drawOrder":null,"icon":null},"geometry":{"type":"Point","coordinates":[-89.478069186288195,44.177580785490981,0.0]}},
{"type":"Feature","properties":{"id":null,"Name":"Neil Ladder","description":null,"timestamp":null,"begin":null,"end":null,"altitudeMode":null,"tessellate":-1,"extrude":0,"visibility":-1,"drawOrder":null,"icon":null},"geometry":{"type":"Point","coordinates":[-89.487898704703568,44.18198811534689,0.0]}},
{"type":"Feature","properties":{"id":null,"Name":"Rocking Chair","description":null,"timestamp":null,"begin":null,"end":null,"altitudeMode":null,"tessellate":-1,"extrude":0,"visibility":-1,"drawOrder":null,"icon":null},"geometry":{"type":"Point","coordinates":[-89.487546169605906,44.18101004342509,0.0]}},
{"type":"Feature","properties":{"id":null,"Name":"Red Shed","description":null,"timestamp":null,"begin":null,"end":null,"altitudeMode":null,"tessellate":null,"extrude":null,"visibility":null,"drawOrder":null,"icon":null},"geometry":{"type":"Point","coordinates":[-89.487592844407871,44.17935905900827,0.0]}},
{"type":"Feature","properties":{"id":null,"Name":"Ladder","description":null,"timestamp":null,"begin":null,"end":null,"altitudeMode":null,"tessellate":null,"extrude":null,"visibility":null,"drawOrder":null,"icon":null},"geometry":{"type":"Point","coordinates":[-89.490678794707037,44.179047421276621,0.0]}},
{"type":"Feature","properties":{"id":null,"Name":"Ladder","description":null,"timestamp":null,"begin":null,"end":null,"altitudeMode":null,"tessellate":null,"extrude":null,"visibility":null,"drawOrder":null,"icon":null},"geometry":{"type":"Point","coordinates":[-89.489359884725246,44.179456105105864,0.0]}}
]
}
