{
"type": "FeatureCollection",
"name": "Trails",
"crs": { "type": "name", "properties": { "name": "urn:ogc:def:crs:OGC:1.3:CRS84" } },
"features": [
{"type":"Feature","properties":{"id":null,"Name":"RockingChairRd","description":null,"timestamp":null,"begin":null,"end":null,"altitudeMode":null,"tessellate":1,"extrude":0,"visibility":-1,"drawOrder":null,"icon":null},"geometry":{"type":"LineString","coordinates":[[-89.486586969606407,44.181004482716943,0.0],[-89.486750511105427,44.18095537303202,0.0],[-89.48704533323378,44.180906997371842,0.0],[-89.487245827755075,44.180918756920569,0.0],[-89.487374407730158,44.180948955393163,0.0],[-89.487460610958252,44.180972134050776,0.0],[-89.487549603678829,44.180987180083584,0.0],[-89.487623090159033,44.181007338494133,0.0],[-89.487690985217583,44.181040714549766,0.0],[-89.487782801261432,44.181055754328447,0.0],[-89.48784208765754,44.18105562674414,0.0],[-89.487926824740782,44.181065602540762,0.0],[-89.488076650947079,44.181113023426434,0.0],[-89.488215104391585,44.181141168042906,0.0]]}},
{"type":"Feature","properties":{"id":null,"Name":"HiChairRoad","description":null,"timestamp":null,"begin":null,"end":null,"altitudeMode":null,"tessellate":1,"extrude":0,"visibility":-1,"drawOrder":null,"icon":null},"geometry":{"type":"LineString","coordinates":[[-89.48237213771219,44.18275447427596,0.0],[-89.482370718431028,44.182439186414378,0.0],[-89.482380748995695,44.182293353344143,0.0],[-89.482396505811622,44.182198870129163,0.0],[-89.482445199268213,44.182142386362827,0.0],[-89.482571225612432,44.182087958048577,0.0],[-89.482667177976253,44.182029421001829,0.0],[-89.482777453886797,44.181888724486889,0.0],[-89.482890593144731,44.181753162988073,0.0],[-89.482962199371428,44.181687436452677,0.0],[-89.483059582599509,44.181633007194542,0.0],[-89.483159830742338,44.181545714026043,0.0],[-89.483282994967027,44.181343397357033,0.0],[-89.483310207359438,44.181230427963968,0.0],[-89.483261520945433,44.181057891975257,0.0],[-89.483241476444363,44.180881248526291,0.0],[-89.483258665296702,44.180723091422188,0.0],[-89.483257236950777,44.180583419834001,0.0],[-89.483267262957526,44.180523854076867,0.0],[-89.483284447983351,44.180494071721228,0.0],[-89.483356051017566,44.180482775674719,0.0],[-89.48345343126671,44.180462236923503,0.0],[-89.483507850147916,44.18042629268907,0.0],[-89.483562269796579,44.180350295588532,0.0],[-89.48358231951417,44.180302026988073,0.0],[-89.483592345519298,44.180222948390004,0.0],[-89.48360534084739,44.180148528668141,0.0],[-89.483673392936936,44.180047671011451,0.0],[-89.483754172791208,44.179951822255717,0.0],[-89.483797134946613,44.179919985520428,0.0],[-89.483867305375469,44.179923066905317,0.0],[-89.483939923905538,44.179963082325763,0.0],[-89.484221196246509,44.180110304523907,0.0],[-89.484495665712231,44.180188389251178,0.0],[-89.484886955150785,44.180300635104217,0.0],[-89.485219269199362,44.180353503509913,0.0],[-89.485354235895201,44.180320967804633,0.0],[-89.485456310305793,44.180209534975887,0.0],[-89.485809453686272,44.179992046615837,0.0],[-89.486019794193638,44.179947950978509,0.0],[-89.486260877526419,44.179953750149913,0.0],[-89.486463128988177,44.179976954656368,0.0],[-89.486644348879281,44.180077903244282,0.0],[-89.486778374797851,44.180184484139353,0.0],[-89.486890295051467,44.180327376133349,0.0],[-89.486895499003012,44.180468603678491,0.0],[-89.486841186584371,44.180636501177638,0.0],[-89.486720082697886,44.180788842487587,0.0],[-89.486464213938618,44.181204738449708,0.0],[-89.486315525389301,44.181477561662177,0.0],[-89.486294288048896,44.181672829955318,0.0],[-89.48625760249756,44.18192072443783,0.0],[-89.486222848653341,44.182172772475418,0.0],[-89.486327136171624,44.182380502850108,0.0],[-89.486410179287773,44.182503755940481,0.0],[-89.486439149719274,44.182609006511868,0.0]]}},
{"type":"Feature","properties":{"id":null,"Name":"Rd3","description":null,"timestamp":null,"begin":null,"end":null,"altitudeMode":null,"tessellate":1,"extrude":0,"visibility":-1,"drawOrder":null,"icon":null},"geometry":{"type":"LineString","coordinates":[[-89.482691191474515,44.183666954511168,0.0],[-89.482685470634891,44.183443965693499,0.0],[-89.482665561164481,44.183287819620922,0.0],[-89.482648679647824,44.183139770704578,0.0],[-89.482610512018255,44.182966476633311,0.0],[-89.482550755663283,44.1828633873181,0.0],[-89.48245672074998,44.182774391926742,0.0],[-89.482256957139043,44.182730212457813,0.0],[-89.481922738341339,44.182725076426088,0.0],[-89.481402611039016,44.182725109424389,0.0],[-89.481215910931624,44.18266208494164,0.0],[-89.481022236611196,44.182596032284188,0.0],[-89.480713637007952,44.182369400686177,0.0],[-89.480587799342317,44.182002222787837,0.0],[-89.480460200959527,44.181751619074006,0.0],[-89.480397167873193,44.181519685372358,0.0],[-89.480396772089478,44.181492566262783,0.0],[-89.480288914130512,44.181304512857118,0.0],[-89.480119302769737,44.181195278499892,0.0],[-89.479606578384903,44.181239158514742,0.0],[-89.479630406663375,44.180772523125142,0.0],[-89.479701786353445,44.176995364926263,0.0]]}},
{"type":"Feature","properties":{"id":null,"Name":"Rd4","description":null,"timestamp":null,"begin":null,"end":null,"altitudeMode":null,"tessellate":1,"extrude":0,"visibility":-1,"drawOrder":null,"icon":null},"geometry":{"type":"LineString","coordinates":[[-89.480994105161116,44.182644823724509,0.0],[-89.480114106606308,44.182750520882621,0.0],[-89.479349970023804,44.182869213642697,0.0],[-89.478913150726228,44.182727435538581,0.0],[-89.478845865462503,44.182703744608823,0.0],[-89.478645684635822,44.182715754625129,0.0],[-89.478516577174148,44.183263515127052,0.0],[-89.478383164390635,44.183394902841393,0.0],[-89.478059925689166,44.183517343868481,0.0],[-89.477844821272285,44.183480788955968,0.0],[-89.477840279946477,44.183925280999468,0.0],[-89.47798989423525,44.18437086111755,0.0],[-89.477869125916143,44.184575898339702,0.0]]}},
{"type":"Feature","properties":{"id":null,"Name":"rd1","description":"Top lat top","timestamp":null,"begin":null,"end":null,"altitudeMode":null,"tessellate":1,"extrude":0,"visibility":-1,"drawOrder":null,"icon":null},"geometry":{"type":"LineString","coordinates":[[-89.482547268030473,44.184189097614919,0.0],[-89.482628109334371,44.184484917112847,0.0],[-89.484411313605662,44.184428733041543,0.0],[-89.4846950176794,44.184292234543193,0.0],[-89.485186874042697,44.184033980804308,0.0],[-89.485986094665151,44.18415571643115,0.0],[-89.486196002163354,44.183996721735802,0.0],[-89.486406522792436,44.183918625619718,0.0],[-89.487887299766086,44.184396227904237,0.0],[-89.488757773548159,44.184230737855593,0.0],[-89.488949044641473,44.183848483250507,0.0],[-89.48894095803432,44.183511258183238,0.0],[-89.488697993008714,44.183288995212621,0.0],[-89.488272127227219,44.183136328445293,0.0],[-89.488097828579782,44.183002548531377,0.0],[-89.488048166098153,44.182836402149732,0.0],[-89.487998270770788,44.182641773636277,0.0],[-89.488008274330014,44.1822625581176,0.0],[-89.488018287047765,44.182048687806663,0.0],[-89.488068394653197,44.181777304835222,0.0],[-89.488171884656126,44.181534757260373,0.0],[-89.488228795428014,44.181250458954217,0.0],[-89.48821743397248,44.180984546296536,0.0],[-89.488200061038711,44.180772766757812,0.0],[-89.488213580527187,44.180622922512811,0.0],[-89.488228228476856,44.180475027342254,0.0],[-89.488280577844989,44.180358313472965,0.0],[-89.488377641437808,44.1802651613148,0.0],[-89.488580320994799,44.180159107099115,0.0],[-89.488724552146635,44.180114859034099,0.0],[-89.488873578213131,44.180094258601187,0.0],[-89.48912246613834,44.180088650796193,0.0],[-89.489266894495358,44.180091717975642,0.0],[-89.489344381528525,44.180090705274282,0.0],[-89.489406675942533,44.180106624127134,0.0],[-89.48946434114778,44.180138606739064,0.0],[-89.489527820351753,44.180157057763942,0.0],[-89.489719248312355,44.180168471862757,0.0],[-89.489911992088977,44.180213680183208,0.0],[-89.490150814470212,44.180262093712912,0.0],[-89.49049127952415,44.180341963307598,0.0],[-89.490756435873422,44.180407208973023,0.0],[-89.491026298960307,44.180463452015758,0.0]]}},
{"type":"Feature","properties":{"id":null,"Name":"Rd2","description":"past the boat launch, flooded in 2020","timestamp":null,"begin":null,"end":null,"altitudeMode":null,"tessellate":1,"extrude":0,"visibility":-1,"drawOrder":null,"icon":null},"geometry":{"type":"LineString","coordinates":[[-89.482701558633423,44.184171006639687,0.0],[-89.482689193074407,44.183667506976732,0.0],[-89.483247732378501,44.183671123500702,0.0],[-89.483637576788169,44.183635627404207,0.0],[-89.484185069628268,44.183415994218826,0.0],[-89.484557153465275,44.183284120768029,0.0],[-89.484883781338652,44.183256817615572,0.0],[-89.485402497198621,44.18313159503257,0.0],[-89.485602471137739,44.182964278006203,0.0],[-89.4858982664,44.182783015802073,0.0],[-89.486141290084149,44.182651549684039,0.0],[-89.486649568537402,44.182587795167827,0.0],[-89.487038369214162,44.182648450401899,0.0],[-89.487481451119095,44.182683898284893,0.0],[-89.488016472589251,44.182662240924877,0.0]]}},
{"type":"Feature","properties":{"id":null,"Name":"7th","description":null,"timestamp":null,"begin":null,"end":null,"altitudeMode":null,"tessellate":1,"extrude":0,"visibility":-1,"drawOrder":null,"icon":null},"geometry":{"type":"LineString","coordinates":[[-89.492125562517032,44.184740384748409,0.0],[-89.492121346176305,44.184222664357321,0.0],[-89.49211119836896,44.184165656318619,0.0],[-89.49209497530569,44.184122240212218,0.0],[-89.492056033890762,44.18406122161273,0.0],[-89.492001079077298,44.184006348430948,0.0],[-89.491969852143583,44.183984690954048,0.0],[-89.491906050519958,44.183957333817126,0.0],[-89.491828188404114,44.183951733208978,0.0],[-89.491706933038074,44.183947924740309,0.0],[-89.491518189686033,44.183937474259878,0.0],[-89.491221825914195,44.183912321817957,0.0],[-89.491144402779952,44.183898912072863,0.0],[-89.491093362998868,44.183877297567662,0.0],[-89.491058345368472,44.183851574518165,0.0],[-89.491024259821202,44.183823133699363,0.0],[-89.490988141586556,44.183760071786025,0.0],[-89.490968134091247,44.183713948040442,0.0],[-89.490944321546181,44.18354834060677,0.0],[-89.490938668493001,44.183295406789533,0.0],[-89.490967300227624,44.182719374370883,0.0],[-89.490964114309946,44.182297815915206,0.0],[-89.490947808202776,44.182066035284507,0.0],[-89.490933020072944,44.181844700838333,0.0]]}},
{"type":"Feature","properties":{"id":null,"Name":"Ski Hill","description":null,"timestamp":null,"begin":null,"end":null,"altitudeMode":null,"tessellate":1,"extrude":0,"visibility":-1,"drawOrder":null,"icon":null},"geometry":{"type":"LineString","coordinates":[[-89.485201499191362,44.184008540083738,0.0],[-89.484956122191591,44.183843811727741,0.0],[-89.484635916500679,44.183595470662517,0.0],[-89.484291349524952,44.18338082281327,0.0]]}},
{"type":"Feature","properties":{"id":null,"Name":"ChrisRd","description":null,"timestamp":null,"begin":null,"end":null,"altitudeMode":null,"tessellate":1,"extrude":0,"visibility":-1,"drawOrder":null,"icon":null},"geometry":{"type":"LineString","coordinates":[[-89.49093302287045,44.181845365597042,0.0],[-89.49075050752262,44.181377867326404,0.0],[-89.490730073039785,44.180985862074877,0.0],[-89.490851043792574,44.180715219439534,0.0],[-89.491003787957681,44.180496404609308,0.0],[-89.491065557230939,44.180393021951659,0.0],[-89.491141058350266,44.180319175422987,0.0],[-89.49112814435847,44.17988066460962,0.0],[-89.491173837601721,44.179578923126037,0.0],[-89.49119263324161,44.179302588342793,0.0],[-89.491170787947951,44.179133648970101,0.0],[-89.491182955423056,44.178956186040736,0.0],[-89.491167254683788,44.178852293262551,0.0],[-89.491145230044239,44.17878009934487,0.0],[-89.491093375135392,44.178733741003278,0.0],[-89.490973413487779,44.178684996306387,0.0],[-89.490875819808053,44.178650566647789,0.0],[-89.49080519431908,44.178607628813197,0.0],[-89.490763895789911,44.178558712520832,0.0],[-89.490704815800541,44.178469278039685,0.0],[-89.490689357565358,44.178422840258079,0.0],[-89.490698547624149,44.178374658938608,0.0],[-89.490676066342587,44.17833330605734,0.0],[-89.490619633120616,44.178314840330266,0.0],[-89.490485814643449,44.178321046074089,0.0],[-89.490288656943619,44.178341753261961,0.0],[-89.48997883135074,44.178372843994488,0.0],[-89.489500767555526,44.1783214949062,0.0],[-89.489199991691422,44.178270605201078,0.0]]}},
{"type":"Feature","properties":{"id":null,"Name":"South Border","description":null,"timestamp":null,"begin":null,"end":null,"altitudeMode":null,"tessellate":1,"extrude":0,"visibility":-1,"drawOrder":null,"icon":null},"geometry":{"type":"LineString","coordinates":[[-89.489195281315077,44.17826723565436,0.0],[-89.488856805537424,44.178185164027262,0.0],[-89.488722863830446,44.178161795241785,0.0],[-89.488556034440364,44.17813511755498,0.0],[-89.488176812377716,44.17808366361038,0.0],[-89.48784963749732,44.178106453488503,0.0],[-89.487693992421882,44.178147462984782,0.0],[-89.487525644397451,44.178254537271087,0.0],[-89.48734459001345,44.178370723904052,0.0]]}},
{"type":"Feature","properties":{"id":null,"Name":"Untitled Path","description":null,"timestamp":null,"begin":null,"end":null,"altitudeMode":null,"tessellate":1,"extrude":0,"visibility":-1,"drawOrder":null,"icon":null},"geometry":{"type":"LineString","coordinates":[[-89.488006253594406,44.182344857158149,0.0],[-89.488234573770384,44.18226453176711,0.0],[-89.488360036297948,44.182195316335473,0.0],[-89.488471984047791,44.182080421475462,0.0],[-89.488542456025669,44.181954641965987,0.0],[-89.488564810896975,44.181899231509668,0.0],[-89.488604119743741,44.181847339818738,0.0],[-89.488661075620143,44.181795917918286,0.0],[-89.488692705257137,44.181764359183816,0.0],[-89.488810162539366,44.181665570883773,0.0],[-89.488897422816649,44.181603417266622,0.0],[-89.489018667176865,44.181566585604237,0.0],[-89.489082120971602,44.181550195240376,0.0],[-89.489189376537837,44.181543868265301,0.0],[-89.489251486604303,44.181543733841025,0.0],[-89.489309606095063,44.18154243534795,0.0]]}},
{"type":"Feature","properties":{"id":null,"Name":"Untitled Path","description":null,"timestamp":null,"begin":null,"end":null,"altitudeMode":null,"tessellate":1,"extrude":0,"visibility":-1,"drawOrder":null,"icon":null},"geometry":{"type":"LineString","coordinates":[[-89.489307764128213,44.181543768865538,0.0],[-89.489463000753744,44.181554068901242,0.0],[-89.489540591268252,44.18155257125229,0.0],[-89.489582174506339,44.181555804954144,0.0],[-89.489622923034858,44.181580312924154,0.0],[-89.489654520237963,44.181625448429614,0.0],[-89.4896962454971,44.181662584786835,0.0],[-89.489725858856559,44.1816751510991,0.0],[-89.489917412482114,44.181754507290549,0.0],[-89.490011770391703,44.181786211169246,0.0],[-89.490192041515826,44.181818393096989,0.0],[-89.490353778876397,44.181836654977737,0.0],[-89.490449923260257,44.181853729785772,0.0],[-89.490491554232548,44.18186826405497,0.0],[-89.490538722246697,44.181881456732064,0.0],[-89.490576660981219,44.181896663768605,0.0],[-89.49065158679673,44.181920432227635,0.0],[-89.490703855873278,44.181921706782262,0.0],[-89.49077432779255,44.181891580094494,0.0],[-89.490931172538311,44.181844704864552,0.0]]}},
{"type":"Feature","properties":{"id":null,"Name":"Untitled Path","description":null,"timestamp":null,"begin":null,"end":null,"altitudeMode":null,"tessellate":1,"extrude":0,"visibility":-1,"drawOrder":null,"icon":null},"geometry":{"type":"LineString","coordinates":[[-89.489307764128213,44.181543768865538,0.0],[-89.489430421265553,44.181441899633313,0.0],[-89.489568436114084,44.181331364537627,0.0],[-89.489662746431691,44.181263723347023,0.0],[-89.489826062784516,44.181136690390318,0.0],[-89.489989379931828,44.181029453655881,0.0],[-89.490120492661532,44.180937065385599,0.0],[-89.490242403855433,44.180847976783902,0.0],[-89.490394216924116,44.180732491641727,0.0],[-89.490509226388795,44.180643403016497,0.0],[-89.49051382662347,44.180638453729941,0.0],[-89.49064263640453,44.180532867336531,0.0],[-89.490803650361457,44.180422329882198,0.0]]}},
{"type":"Feature","properties":{"id":null,"Name":"Flat Top Rd","description":null,"timestamp":null,"begin":null,"end":null,"altitudeMode":null,"tessellate":null,"extrude":null,"visibility":null,"drawOrder":null,"icon":null},"geometry":{"type":"LineString","coordinates":[[-89.488734576250152,44.178155010459655,0.0],[-89.488827448968294,44.178449844604216,0.0],[-89.488682259564655,44.178511146796865,0.0],[-89.488478994399557,44.178627298319775,0.0],[-89.488356390014275,44.178740223411495,0.0],[-89.48816925700514,44.178869280659171,0.0],[-89.487943406821699,44.178982205750891,0.0],[-89.487743368087806,44.179075772255452,0.0],[-89.487646575152041,44.179191923778362,0.0],[-89.487620763702509,44.1792564524022,0.0],[-89.487620763702509,44.179337113182001,0.0],[-89.487653028014435,44.179414547530605,0.0],[-89.487746594518995,44.179469396860867,0.0],[-89.48794018039051,44.179508114035173,0.0],[-89.48816603057395,44.17949198187921,0.0],[-89.488420918638113,44.179511340466362,0.0],[-89.488598372353664,44.179533925484705,0.0],[-89.4888661661426,44.179556510503055,0.0],[-89.489043619858151,44.17960490697093,0.0],[-89.489259360561604,44.179693769912397,0.0],[-89.489350104780996,44.179774687202539,0.0],[-89.489382038504644,44.179830383755302,0.0],[-89.489423534685585,44.179926616464414,0.0],[-89.489422876558393,44.180049978394443,0.0],[-89.489433733250422,44.180119239542655,0.0]]}}
]
}
